{
	"Members" :[
	{
		"postcode": "3000",
		"name": "patrick",
		"space": "4"
		},
	{
		"postcode": "2000",
		"name": "burno",
		"space": "3"
		},
	{
		"postcode": "3000",
		"name": "Sam",
		"space": "2"
	},
	{
		"postcode": "4000",
		"name": "Shane",
		"space": "2"
	},
	{
		"postcode": "3500",
		"name": "Kane",
		"space": "3"
	},
	{
		"postcode": "3500",
		"name": "Ken",
		"space": "4"
	},
	{
		"postcode": "3000",
		"name": "Stan",
		"space": "3"
	},

	{
		"postcode": "3000",
		"name": "Samantha",
		"space": "0"
	},
	{
		"postcode": "2000",
		"name": "Dang",
		"space": "0"
	},
	{
		"postcode": "3500",
		"name": "Tsang",
		"space": "0"
	},
	{
		"postcode": "3500",
		"name":"Jane",
		"space": "0"
	},
	{
		"postcode": "4000",
		"name": "Leong",
		"space": "0"
	},
	{
		"postcode": "5000",
		"name": "Lily",
		"space": "0"
	},
	{
		"postcode": "4000",
		"name": "Chen",
		"space": "2"
	},
	{
		"postcode": "4500",
		"name": "Adam",
		"space": "4"
	},
	{
		"postcode":"4500",
		"name": "Kenji",
		"space": "5"
	}


	],
	"Events" :[

	{
		"location": "Unidus",
		"start-time": "1100",
		"end-time": "1400",
		"members": [ "john", "sarah"]
	},
	{
		"location": "My house",
		"start-time": "1300",
		"end-time": "1400",
		"members": [ "john", "sarah", "tsang"]
	},
	{
		"location": "Fish & chips",
		"start-time": "1500",
		"end-time": "1700",
		"members": [ "john", "tsang", "jane"]
	}



	]
}